     2.10           G: GLONASS NAV DATA                     RINEX VERSION / TYPE
teqc  2015Jun23                         20210625 01:25:46UTCPGM / RUN BY / DATE
Linux 2.4.21-27.ELsmp|Opteron|gcc -static|Linux x86_64|=+   COMMENT
  2021     6     1    2.281740307808D-08                    CORR TO SYSTEM TIME
                                                            END OF HEADER
 5 21  6  2  0 15  0.0 7.282849401236D-05 9.094947017729D-13 0.000000000000D+00
    3.566469726562D+02-1.090772628784D+00 9.313225746155D-10 0.000000000000D+00
    1.808564892578D+04-2.212615966797D+00 2.793967723846D-09 1.000000000000D+00
   -1.795917138672D+04-2.249541282654D+00 9.313225746155D-10 0.000000000000D+00
 6 21  6  2  0 15  0.0 1.989947631955D-04 0.000000000000D+00 0.000000000000D+00
    1.279838134766D+04 1.007833480835D-01-0.000000000000D+00 0.000000000000D+00
    2.205124951172D+04-1.064090728760D-01 2.793967723846D-09-4.000000000000D+00
   -3.007036132812D+02-3.561535835266D+00-9.313225746155D-10 0.000000000000D+00
18 21  6  2  0 15  0.0 7.858779281378D-05 9.094947017729D-13 0.000000000000D+00
   -1.596075292969D+04 1.185096740723D+00-0.000000000000D+00 0.000000000000D+00
    1.377018164062D+04-1.579627990723D+00 0.000000000000D+00-3.000000000000D+00
    1.433010498047D+04 2.844218254089D+00-9.313225746155D-10 0.000000000000D+00
19 21  6  2  0 15  0.0-1.460732892156D-04-9.094947017729D-13 0.000000000000D+00
   -1.341400292969D+04 1.329755783081D-01 0.000000000000D+00 0.000000000000D+00
    2.166935156250D+04 2.652578353882D-01 1.862645149231D-09 3.000000000000D+00
   -1.104690917969D+03 3.608811378479D+00-0.000000000000D+00 0.000000000000D+00
20 21  6  2  0 15  0.0-5.015265196562D-05-0.000000000000D+00 0.000000000000D+00
   -1.290703613281D+03-1.271362304688D+00 9.313225746155D-10 0.000000000000D+00
    1.726039111328D+04 2.238159179688D+00 2.793967723846D-09 2.000000000000D+00
   -1.871665380859D+04 2.155492782593D+00 9.313225746155D-10 0.000000000000D+00
 7 21  6  2  0 15  0.0-4.239100962877D-05 0.000000000000D+00 1.680000000000D+03
    1.559833642578D+04 1.148191452026D+00-9.313225746155D-10 0.000000000000D+00
    1.262192822266D+04 1.823547363281D+00 0.000000000000D+00 5.000000000000D+00
    1.576570214844D+04-2.606618881226D+00-2.793967723846D-09 0.000000000000D+00
 5 21  6  2  0 45  0.0 7.282942533493D-05 9.094947017729D-13 1.800000000000D+03
   -2.137492675781D+03-1.674196243286D+00 9.313225746155D-10 0.000000000000D+00
    1.389959326172D+04-2.389343261719D+00 1.862645149231D-09 1.000000000000D+00
   -2.126025439453D+04-1.394482612610D+00 9.313225746155D-10 0.000000000000D+00
 6 21  6  2  0 45  0.0 1.989956945181D-04 0.000000000000D+00 1.800000000000D+03
    1.250903613281D+04-4.509382247925D-01 0.000000000000D+00 0.000000000000D+00
    2.121219238281D+04-7.969055175781D-01 2.793967723846D-09-4.000000000000D+00
   -6.616896484375D+03-3.410831451416D+00-9.313225746155D-10 0.000000000000D+00
 7 21  6  2  0 45  0.0-4.238728433847D-05 0.000000000000D+00 1.800000000000D+03
    1.754482910156D+04 9.702711105347D-01-0.000000000000D+00 0.000000000000D+00
    1.523009960938D+04 1.067421913147D+00 9.313225746155D-10 5.000000000000D+00
    1.052530468750D+04-3.178397178650D+00-1.862645149231D-09 0.000000000000D+00
18 21  6  2  0 45  0.0 7.858965545893D-05 9.094947017729D-13 1.800000000000D+03
   -1.379745312500D+04 1.174484252930D+00-0.000000000000D+00 0.000000000000D+00
    1.025658837891D+04-2.304020881653D+00-0.000000000000D+00-3.000000000000D+00
    1.882839501953D+04 2.121483802795D+00-9.313225746155D-10 0.000000000000D+00
19 21  6  2  0 45  0.0-1.460760831833D-04-9.094947017729D-13 1.800000000000D+03
   -1.277298779297D+04 5.395584106445D-01 0.000000000000D+00 0.000000000000D+00
    2.142106298828D+04-5.576114654541D-01 1.862645149231D-09 3.000000000000D+00
    5.349941406250D+03 3.516422271729D+00-9.313225746155D-10 0.000000000000D+00
20 21  6  2  0 45  0.0-5.015358328819D-05-0.000000000000D+00 1.800000000000D+03
   -3.016300292969D+03-6.535863876343D-01 9.313225746155D-10 0.000000000000D+00
    2.097654248047D+04 1.842751502991D+00 2.793967723846D-09 2.000000000000D+00
   -1.416206103516D+04 2.872313499451D+00 0.000000000000D+00 0.000000000000D+00
16 21  6  2  0 45  0.0-1.583527773619D-05-0.000000000000D+00 2.010000000000D+03
   -1.241349462891D+04-2.597149848938D+00-0.000000000000D+00 0.000000000000D+00
    1.126138134766D+04 4.561882019043D-01-0.000000000000D+00-1.000000000000D+00
    1.925622509766D+04-1.927105903625D+00-9.313225746155D-10 0.000000000000D+00
 5 21  6  2  1 15  0.0 7.283035665751D-05 9.094947017729D-13 3.600000000000D+03
   -5.614454101562D+03-2.164669036865D+00 9.313225746155D-10 0.000000000000D+00
    9.657186523438D+03-2.278990745544D+00 9.313225746155D-10 1.000000000000D+00
   -2.291443896484D+04-4.315853118896D-01 1.862645149231D-09 0.000000000000D+00
 6 21  6  2  1 15  0.0 1.989966258407D-04 0.000000000000D+00 3.600000000000D+03
    1.109832275391D+04-1.129597663879D+00 9.313225746155D-10 0.000000000000D+00
    1.930977197266D+04-1.276351928711D+00 2.793967723846D-09-4.000000000000D+00
   -1.242091064453D+04-2.996177673340D+00-0.000000000000D+00 0.000000000000D+00
 7 21  6  2  1 15  0.0-4.238728433847D-05-0.000000000000D+00 3.600000000000D+03
    1.893582861328D+04 5.347404479980D-01 0.000000000000D+00 0.000000000000D+00
    1.647393798828D+04 3.265647888184D-01 1.862645149231D-09 5.000000000000D+00
    4.470942382812D+03-3.505023002625D+00-1.862645149231D-09 0.000000000000D+00
16 21  6  2  1 15  0.0-1.583620905876D-05 0.000000000000D+00 3.600000000000D+03
   -1.654143066406D+04-1.957409858704D+00-0.000000000000D+00 0.000000000000D+00
    1.230044775391D+04 6.646041870117D-01-0.000000000000D+00-1.000000000000D+00
    1.509003662109D+04-2.671793937683D+00-0.000000000000D+00 0.000000000000D+00
19 21  6  2  1 15  0.0-1.460788771510D-04-9.094947017729D-13 3.600000000000D+03
   -1.162564306641D+04 6.909551620483D-01 0.000000000000D+00 0.000000000000D+00
    1.963776611328D+04-1.420464515686D+00 9.313225746155D-10 3.000000000000D+00
    1.139081787109D+04 3.152057647705D+00-9.313225746155D-10 0.000000000000D+00
20 21  6  2  1 15  0.0-5.015544593334D-05-9.094947017729D-13 3.600000000000D+03
   -3.703600097656D+03-1.350698471069D-01 9.313225746155D-10 0.000000000000D+00
    2.373590771484D+04 1.184817314148D+00 2.793967723846D-09 2.000000000000D+00
   -8.510026367188D+03 3.366876602173D+00-0.000000000000D+00 0.000000000000D+00
21 21  6  2  1 15  0.0-2.134144306183D-04-2.728484105319D-12 4.710000000000D+03
    7.065572265625D+03-7.647027969360D-01 9.313225746155D-10 0.000000000000D+00
    1.099707617188D+04 2.904808044434D+00 1.862645149231D-09 4.000000000000D+00
   -2.191575634766D+04 1.209221839905D+00 9.313225746155D-10 0.000000000000D+00
 9 21  6  2  1 15  0.0-4.146248102188D-06 1.818989403546D-12 5.250000000000D+03
    4.441074218750D+02-3.005101203918D+00-9.313225746155D-10 0.000000000000D+00
    1.148851318359D+04 8.134317398071D-01 0.000000000000D+00-2.000000000000D+00
    2.278231933594D+04-3.586368560791D-01-1.862645149231D-09 0.000000000000D+00
21 21  6  2  1 45  0.0-2.134190872312D-04-2.728484105319D-12 5.400000000000D+03
    6.153911621094D+03-2.572517395020D-01 1.862645149231D-09 0.000000000000D+00
    1.598132177734D+04 2.583023071289D+00 2.793967723846D-09 4.000000000000D+00
   -1.892117578125D+04 2.096486091614D+00 9.313225746155D-10 0.000000000000D+00
 6 21  6  2  1 45  0.0 1.989975571632D-04 0.000000000000D+00 5.400000000000D+03
    8.428193847656D+03-1.831790924072D+00 1.862645149231D-09 0.000000000000D+00
    1.677426367188D+04-1.495740890503D+00 2.793967723846D-09-4.000000000000D+00
   -1.726377587891D+04-2.349864006042D+00 0.000000000000D+00 0.000000000000D+00
 7 21  6  2  1 45  0.0-4.238728433847D-05-0.000000000000D+00 5.400000000000D+03
    1.934125439453D+04-1.138849258423D-01 9.313225746155D-10 0.000000000000D+00
    1.647960351562D+04-2.919893264771D-01 2.793967723846D-09 5.000000000000D+00
   -1.929620605469D+03-3.560430526733D+00-9.313225746155D-10 0.000000000000D+00
 9 21  6  2  1 45  0.0-4.142522811890D-06 1.818989403546D-12 5.400000000000D+03
   -4.703576660156D+03-2.670866966248D+00-0.000000000000D+00 0.000000000000D+00
    1.327756738281D+04 1.149564743042D+00 0.000000000000D+00-2.000000000000D+00
    2.126526660156D+04-1.316265106201D+00-1.862645149231D-09 0.000000000000D+00
16 21  6  2  1 45  0.0-1.583620905876D-05 0.000000000000D+00 5.400000000000D+03
   -1.937469433594D+04-1.175861358643D+00 0.000000000000D+00 0.000000000000D+00
    1.351709960938D+04 6.462888717651D-01-0.000000000000D+00-1.000000000000D+00
    9.762188964844D+03-3.209653854370D+00-0.000000000000D+00 0.000000000000D+00
19 21  6  2  1 45  0.0-1.460816711187D-04-9.094947017729D-13 5.400000000000D+03
   -1.044193994141D+04 5.832700729370D-01-0.000000000000D+00 0.000000000000D+00
    1.635577050781D+04-2.203022003174D+00 0.000000000000D+00 3.000000000000D+00
    1.655066357422D+04 2.543854713440D+00-9.313225746155D-10 0.000000000000D+00
20 21  6  2  1 45  0.0-5.015730857849D-05-9.094947017729D-13 5.400000000000D+03
   -3.617161132812D+03 1.936655044556D-01 9.313225746155D-10 0.000000000000D+00
    2.513071582031D+04 3.426351547241D-01 1.862645149231D-09 2.000000000000D+00
   -2.198254882812D+03 3.600539207458D+00-0.000000000000D+00 0.000000000000D+00
21 21  6  2  2 15  0.0-2.134237438440D-04-2.728484105319D-12 7.200000000000D+03
    6.075545898438D+03 1.443748474121D-01 1.862645149231D-09 0.000000000000D+00
    2.012936865234D+04 1.985028266907D+00 1.862645149231D-09 4.000000000000D+00
   -1.446583447266D+04 2.821789741516D+00 0.000000000000D+00 0.000000000000D+00
 6 21  6  2  2 15  0.0 1.989994198084D-04 0.000000000000D+00 7.200000000000D+03
    4.557054199219D+03-2.445694923401D+00 1.862645149231D-09 0.000000000000D+00
    1.408487646484D+04-1.450350761414D+00 1.862645149231D-09-4.000000000000D+00
   -2.077126562500D+04-1.522095680237D+00 9.313225746155D-10 0.000000000000D+00
